CCSDS_OMM_VERS = 2.0
CREATION_DATE  = 
ORIGINATOR     = 

OBJECT_NAME    = STARLINK-36167
OBJECT_ID      = 2025-293J
CENTER_NAME    = EARTH
REF_FRAME      = TEME
TIME_SYSTEM    = UTC
MEAN_ELEMENT_THEORY = SGP/SGP4

EPOCH          = 2026-01-03T14:00:01.999872
MEAN_MOTION    = 15.52467896
ECCENTRICITY   = .00029674
INCLINATION    = 69.9996
RA_OF_ASC_NODE = 261.6482
ARG_OF_PERICENTER = 267.5397
MEAN_ANOMALY   = 313.2512

EPHEMERIS_TYPE = 0
CLASSIFICATION_TYPE = U
NORAD_CAT_ID   = 67011
ELEMENT_SET_NO = 999
REV_AT_EPOCH   = 360
BSTAR          = .91689609E-3
MEAN_MOTION_DOT = .56537E-3
MEAN_MOTION_DDOT = 0

CCSDS_OMM_VERS = 2.0
CREATION_DATE  = 
ORIGINATOR     = 

OBJECT_NAME    = STARLINK-36175
OBJECT_ID      = 2025-293K
CENTER_NAME    = EARTH
REF_FRAME      = TEME
TIME_SYSTEM    = UTC
MEAN_ELEMENT_THEORY = SGP/SGP4

EPOCH          = 2026-01-03T14:00:01.999872
MEAN_MOTION    = 15.52464467
ECCENTRICITY   = .00032384
INCLINATION    = 69.9997
RA_OF_ASC_NODE = 261.6439
ARG_OF_PERICENTER = 266.8796
MEAN_ANOMALY   = 317.7404

EPHEMERIS_TYPE = 0
CLASSIFICATION_TYPE = U
NORAD_CAT_ID   = 67012
ELEMENT_SET_NO = 999
REV_AT_EPOCH   = 360
BSTAR          = .11461434E-2
MEAN_MOTION_DOT = .70836E-3
MEAN_MOTION_DDOT = 0

CCSDS_OMM_VERS = 2.0
CREATION_DATE  = 
ORIGINATOR     = 

OBJECT_NAME    = STARLINK-35856
OBJECT_ID      = 2025-293L
CENTER_NAME    = EARTH
REF_FRAME      = TEME
TIME_SYSTEM    = UTC
MEAN_ELEMENT_THEORY = SGP/SGP4

EPOCH          = 2026-01-03T14:00:01.999872
MEAN_MOTION    = 15.52468265
ECCENTRICITY   = .00033152
INCLINATION    = 69.9996
RA_OF_ASC_NODE = 261.6413
ARG_OF_PERICENTER = 264.5431
MEAN_ANOMALY   = 322.0002

EPHEMERIS_TYPE = 0
CLASSIFICATION_TYPE = U
NORAD_CAT_ID   = 67013
ELEMENT_SET_NO = 999
REV_AT_EPOCH   = 360
BSTAR          = .92984642E-3
MEAN_MOTION_DOT = .57347E-3
MEAN_MOTION_DDOT = 0

CCSDS_OMM_VERS = 2.0
CREATION_DATE  = 
ORIGINATOR     = 

OBJECT_NAME    = STARLINK-36207
OBJECT_ID      = 2025-293M
CENTER_NAME    = EARTH
REF_FRAME      = TEME
TIME_SYSTEM    = UTC
MEAN_ELEMENT_THEORY = SGP/SGP4

EPOCH          = 2026-01-03T14:00:01.999872
MEAN_MOTION    = 15.52466906
ECCENTRICITY   = .00031085
INCLINATION    = 69.9998
RA_OF_ASC_NODE = 261.6391
ARG_OF_PERICENTER = 274.2592
MEAN_ANOMALY   = 314.1953

EPHEMERIS_TYPE = 0
CLASSIFICATION_TYPE = U
NORAD_CAT_ID   = 67014
ELEMENT_SET_NO = 999
REV_AT_EPOCH   = 367
BSTAR          = .10110479E-2
MEAN_MOTION_DOT = .62405E-3
MEAN_MOTION_DDOT = 0

CCSDS_OMM_VERS = 2.0
CREATION_DATE  = 
ORIGINATOR     = 

OBJECT_NAME    = STARLINK-36093
OBJECT_ID      = 2025-293N
CENTER_NAME    = EARTH
REF_FRAME      = TEME
TIME_SYSTEM    = UTC
MEAN_ELEMENT_THEORY = SGP/SGP4

EPOCH          = 2026-01-03T14:00:01.999872
MEAN_MOTION    = 15.52458754
ECCENTRICITY   = .00031545
INCLINATION    = 69.9996
RA_OF_ASC_NODE = 261.6346
ARG_OF_PERICENTER = 265.6182
MEAN_ANOMALY   = 326.6753

EPHEMERIS_TYPE = 0
CLASSIFICATION_TYPE = U
NORAD_CAT_ID   = 67015
ELEMENT_SET_NO = 999
REV_AT_EPOCH   = 360
BSTAR          = .12013128E-2
MEAN_MOTION_DOT = .7427E-3
MEAN_MOTION_DDOT = 0

CCSDS_OMM_VERS = 2.0
CREATION_DATE  = 
ORIGINATOR     = 

OBJECT_NAME    = STARLINK-36120
OBJECT_ID      = 2025-293P
CENTER_NAME    = EARTH
REF_FRAME      = TEME
TIME_SYSTEM    = UTC
MEAN_ELEMENT_THEORY = SGP/SGP4

EPOCH          = 2026-01-03T14:00:01.999872
MEAN_MOTION    = 15.52568072
ECCENTRICITY   = .00030372
INCLINATION    = 69.9996
RA_OF_ASC_NODE = 261.6374
ARG_OF_PERICENTER = 264.4096
MEAN_ANOMALY   = 325.8896

EPHEMERIS_TYPE = 0
CLASSIFICATION_TYPE = U
NORAD_CAT_ID   = 67016
ELEMENT_SET_NO = 999
REV_AT_EPOCH   = 360
BSTAR          = -.10830281E-2
MEAN_MOTION_DOT = -.66358E-3
MEAN_MOTION_DDOT = 0

CCSDS_OMM_VERS = 2.0
CREATION_DATE  = 
ORIGINATOR     = 

OBJECT_NAME    = STARLINK-35498
OBJECT_ID      = 2025-293Q
CENTER_NAME    = EARTH
REF_FRAME      = TEME
TIME_SYSTEM    = UTC
MEAN_ELEMENT_THEORY = SGP/SGP4

EPOCH          = 2026-01-03T14:00:01.999872
MEAN_MOTION    = 15.52450964
ECCENTRICITY   = .00031227
INCLINATION    = 69.9997
RA_OF_ASC_NODE = 261.6325
ARG_OF_PERICENTER = 265.1462
MEAN_ANOMALY   = 329.0599

EPHEMERIS_TYPE = 0
CLASSIFICATION_TYPE = U
NORAD_CAT_ID   = 67017
ELEMENT_SET_NO = 999
REV_AT_EPOCH   = 380
BSTAR          = .14893256E-2
MEAN_MOTION_DOT = .923E-3
MEAN_MOTION_DDOT = 0

CCSDS_OMM_VERS = 2.0
CREATION_DATE  = 
ORIGINATOR     = 

OBJECT_NAME    = STARLINK-36106
OBJECT_ID      = 2025-293R
CENTER_NAME    = EARTH
REF_FRAME      = TEME
TIME_SYSTEM    = UTC
MEAN_ELEMENT_THEORY = SGP/SGP4

EPOCH          = 2026-01-03T14:00:01.999872
MEAN_MOTION    = 15.52468482
ECCENTRICITY   = .0003218
INCLINATION    = 69.9994
RA_OF_ASC_NODE = 261.6299
ARG_OF_PERICENTER = 267.6981
MEAN_ANOMALY   = 328.4263

EPHEMERIS_TYPE = 0
CLASSIFICATION_TYPE = U
NORAD_CAT_ID   = 67018
ELEMENT_SET_NO = 999
REV_AT_EPOCH   = 372
BSTAR          = .95058128E-3
MEAN_MOTION_DOT = .58639E-3
MEAN_MOTION_DDOT = 0

CCSDS_OMM_VERS = 2.0
CREATION_DATE  = 
ORIGINATOR     = 

OBJECT_NAME    = STARLINK-35688
OBJECT_ID      = 2025-293S
CENTER_NAME    = EARTH
REF_FRAME      = TEME
TIME_SYSTEM    = UTC
MEAN_ELEMENT_THEORY = SGP/SGP4

EPOCH          = 2026-01-03T14:00:01.999872
MEAN_MOTION    = 15.52470913
ECCENTRICITY   = .00031531
INCLINATION    = 69.9995
RA_OF_ASC_NODE = 261.6275
ARG_OF_PERICENTER = 268.4878
MEAN_ANOMALY   = 329.5521

EPHEMERIS_TYPE = 0
CLASSIFICATION_TYPE = U
NORAD_CAT_ID   = 67019
ELEMENT_SET_NO = 999
REV_AT_EPOCH   = 380
BSTAR          = .91700061E-3
MEAN_MOTION_DOT = .56551E-3
MEAN_MOTION_DDOT = 0

CCSDS_OMM_VERS = 2.0
CREATION_DATE  = 
ORIGINATOR     = 

OBJECT_NAME    = STARLINK-36172
OBJECT_ID      = 2025-293T
CENTER_NAME    = EARTH
REF_FRAME      = TEME
TIME_SYSTEM    = UTC
MEAN_ELEMENT_THEORY = SGP/SGP4

EPOCH          = 2026-01-03T14:00:01.999872
MEAN_MOTION    = 15.52461737
ECCENTRICITY   = .00031778
INCLINATION    = 69.9996
RA_OF_ASC_NODE = 261.6253
ARG_OF_PERICENTER = 268.4292
MEAN_ANOMALY   = 331.5272

EPHEMERIS_TYPE = 0
CLASSIFICATION_TYPE = U
NORAD_CAT_ID   = 67020
ELEMENT_SET_NO = 999
REV_AT_EPOCH   = 372
BSTAR          = .12252523E-2
MEAN_MOTION_DOT = .75776E-3
MEAN_MOTION_DDOT = 0

CCSDS_OMM_VERS = 2.0
CREATION_DATE  = 
ORIGINATOR     = 

OBJECT_NAME    = STARLINK-36184
OBJECT_ID      = 2025-293U
CENTER_NAME    = EARTH
REF_FRAME      = TEME
TIME_SYSTEM    = UTC
MEAN_ELEMENT_THEORY = SGP/SGP4

EPOCH          = 2026-01-03T14:00:01.999872
MEAN_MOTION    = 15.52454693
ECCENTRICITY   = .0003132
INCLINATION    = 69.9995
RA_OF_ASC_NODE = 261.6231
ARG_OF_PERICENTER = 264.0084
MEAN_ANOMALY   = 337.8705

EPHEMERIS_TYPE = 0
CLASSIFICATION_TYPE = U
NORAD_CAT_ID   = 67021
ELEMENT_SET_NO = 999
REV_AT_EPOCH   = 372
BSTAR          = .13540441E-2
MEAN_MOTION_DOT = .83822E-3
MEAN_MOTION_DDOT = 0

CCSDS_OMM_VERS = 2.0
CREATION_DATE  = 
ORIGINATOR     = 

OBJECT_NAME    = STARLINK-36209
OBJECT_ID      = 2025-293V
CENTER_NAME    = EARTH
REF_FRAME      = TEME
TIME_SYSTEM    = UTC
MEAN_ELEMENT_THEORY = SGP/SGP4

EPOCH          = 2026-01-03T14:00:01.999872
MEAN_MOTION    = 15.52450819
ECCENTRICITY   = .00033274
INCLINATION    = 69.9997
RA_OF_ASC_NODE = 261.6208
ARG_OF_PERICENTER = 266.5787
MEAN_ANOMALY   = 337.2178

EPHEMERIS_TYPE = 0
CLASSIFICATION_TYPE = U
NORAD_CAT_ID   = 67022
ELEMENT_SET_NO = 999
REV_AT_EPOCH   = 372
BSTAR          = .14559646E-2
MEAN_MOTION_DOT = .90207E-3
MEAN_MOTION_DDOT = 0

