STARLINK-36167          
1 67011U 25293J   26003.58335648  .00056537  00000+0  91690-3 0  9992
2 67011  69.9996 261.6482 0002967 267.5397 313.2512 15.52467896  3606
STARLINK-36175          
1 67012U 25293K   26003.58335648  .00070836  00000+0  11461-2 0  9998
2 67012  69.9997 261.6439 0003238 266.8796 317.7404 15.52464467  3607
STARLINK-35856          
1 67013U 25293L   26003.58335648  .00057347  00000+0  92985-3 0  9992
2 67013  69.9996 261.6413 0003315 264.5431 322.0002 15.52468265  3609
STARLINK-36207          
1 67014U 25293M   26003.58335648  .00062405  00000+0  10110-2 0  9993
2 67014  69.9998 261.6391 0003108 274.2592 314.1953 15.52466906  3677
STARLINK-36093          
1 67015U 25293N   26003.58335648  .00074270  00000+0  12013-2 0  9991
2 67015  69.9996 261.6346 0003154 265.6182 326.6753 15.52458754  3607
STARLINK-36120          
1 67016U 25293P   26003.58335648 -.00066358  00000+0 -10830-2 0  9997
2 67016  69.9996 261.6374 0003037 264.4096 325.8896 15.52568072  3604
STARLINK-35498          
1 67017U 25293Q   26003.58335648  .00092300  00000+0  14893-2 0  9995
2 67017  69.9997 261.6325 0003122 265.1462 329.0599 15.52450964  3800
STARLINK-36106          
1 67018U 25293R   26003.58335648  .00058639  00000+0  95058-3 0  9996
2 67018  69.9994 261.6299 0003218 267.6981 328.4263 15.52468482  3723
STARLINK-35688          
1 67019U 25293S   26003.58335648  .00056551  00000+0  91700-3 0  9998
2 67019  69.9995 261.6275 0003153 268.4878 329.5521 15.52470913  3801
STARLINK-36172          
1 67020U 25293T   26003.58335648  .00075776  00000+0  12253-2 0  9995
2 67020  69.9996 261.6253 0003177 268.4292 331.5272 15.52461737  3727
STARLINK-36184          
1 67021U 25293U   26003.58335648  .00083822  00000+0  13540-2 0  9997
2 67021  69.9995 261.6231 0003132 264.0084 337.8705 15.52454693  3728
STARLINK-36209          
1 67022U 25293V   26003.58335648  .00090207  00000+0  14560-2 0  9996
2 67022  69.9997 261.6208 0003327 266.5787 337.2178 15.52450819  3722
